STARLINK-31298          
1 59167U 24044R   25128.45181754  .00000204  00000+0  16956-4 0  9991
2 59167  43.0105  30.8175 0001841 246.9958 113.0700 15.27572676 66657
STARLINK-31322          
1 59168U 24044S   25128.92902638 -.00000093  00000+0  62937-5 0  9994
2 59168  43.0009  28.3958 0001328 260.2013  99.8688 15.25902681 66997
STARLINK-31329          
1 59169U 24044T   25129.25002315  .00043992  00000+0  16007-2 0  9993
2 59169  43.0019  26.5578 0002000 279.8871  55.8855 15.27537401 66829
STARLINK-31340          
1 59170U 24044U   25127.94659417  .00003346  00000+0  13103-3 0  9994
2 59170  43.0073 354.1523 0002899 269.3481  90.7039 15.27596406 67269
STARLINK-31344          
1 59171U 24044V   25128.99662688  .00043926  00000+0  16595-2 0  9990
2 59171  43.0020  28.0444 0002873  14.0160 346.0770 15.26296670 66999
STARLINK-31348          
1 59172U 24044W   25128.31677280  .00030004  00000+0  10957-2 0  9990
2 59172  43.0036 344.8268 0000553 301.5900  58.4897 15.27571719 67175
STARLINK-31289          
1 59173U 24044X   25128.97864164  .00018514  00000+0  67787-3 0  9998
2 59173  43.0065  27.8975 0001947 256.8362 103.2273 15.27713507 67005
STARLINK-31283          
1 59174U 24044Y   25129.25002315 -.00002712  00000+0 -89004-4 0  9995
2 59174  43.0011 339.4224 0001498 277.6001 237.2982 15.27593860 67595
EXO-0                   
1 59175U 23174DK  25128.71391335  .00008543  00000+0  33123-3 0  9998
2 59175  97.4184 205.2253 0011590 158.9503 201.2215 15.26317484 83182
STARLINK-31439          
1 59178U 24045A   25129.01570722  .00002862  00000+0  11348-3 0  9995
2 59178  43.0040   9.8762 0001462 279.0351  81.0335 15.27580610 66608
STARLINK-31410          
1 59179U 24045B   25129.07289792 -.00003252  00000+0 -10864-3 0  9994
2 59179  43.0039  12.9068 0001919 249.5353 110.5293 15.27591008 66572
STARLINK-31395          
1 59180U 24045C   25129.03578521 -.00000915  00000+0 -23728-4 0  9990
2 59180  43.0085  13.4882 0001147 282.4839  77.5884 15.27575468 66562
STARLINK-31486          
1 59181U 24045D   25128.36570515 -.00005157  00000+0 -17804-3 0  9991
2 59181  43.0029  13.6027 0001439 283.2089  76.8602 15.27573270 66507
STARLINK-31411          
1 59182U 24045E   25128.91642707  .00001423  00000+0  61233-4 0  9992
2 59182  43.0052  13.4469 0001349 281.5690  78.5011 15.27571358 66554
STARLINK-31382          
1 59184U 24045G   25127.96127926  .00020797  00000+0  73893-3 0  9998
2 59184  43.0051  19.1844 0003421 262.9739  97.0724 15.28635852 66407
STARLINK-31394          
1 59185U 24045H   25129.25002315 -.01077917  00000+0 -39368-1 0  9993
2 59185  43.0006   1.3780 0001798 276.2533  49.4956 15.30269673 66714
STARLINK-31403          
1 59186U 24045J   25129.03466451 -.00000284  00000+0 -81509-6 0  9996
2 59186  42.9903 351.6471 0001487  48.1223 311.9755 15.27575210 66711
STARLINK-31514          
1 59187U 24045K   25128.94469804  .00001819  00000+0  75632-4 0  9992
2 59187  43.0031  13.6680 0001275 271.1504  88.9201 15.27576184 66558
STARLINK-31478          
1 59188U 24045L   25129.06519331  .00007487  00000+0  28138-3 0  9993
2 59188  43.0029  12.8418 0001520 278.0892  81.9788 15.27571451 66572
STARLINK-31498          
1 59189U 24045M   25128.04471062  .00000430  00000+0  25145-4 0  9996
2 59189  43.0022  18.9463 0000864 275.6809  84.3944 15.27576951 66418
STARLINK-31563          
1 59190U 24045N   25129.05362716 -.00000574  00000+0 -11372-4 0  9993
2 59190  43.0018  12.7593 0000137 344.6861  15.3987 15.27576940 66575
STARLINK-31551          
1 59191U 24045P   25128.37276592  .00061265  00000+0  20681-2 0  9997
2 59191  43.0050  16.2507 0003317 246.5614 113.4889 15.29850951 66474
STARLINK-31536          
1 59192U 24045Q   25128.91668981 -.00010638  00000+0 -37793-3 0  9998
2 59192  43.0033  13.7300 0001469 271.2017 330.1083 15.27551051 66546
STARLINK-31548          
1 59193U 24045R   25129.03192740  .00000369  00000+0  22923-4 0  9996
2 59193  43.0054  13.4579 0000972 280.3882  79.6860 15.27580319 66563
STARLINK-31542          
1 59194U 24045S   25128.38561887 -.00000477  00000+0 -78142-5 0  9993
2 59194  43.0045  16.3459 0001538 278.3633  81.7044 15.27575342 66471
STARLINK-31554          
1 59195U 24045T   25128.03698787 -.00001012  00000+0 -27231-4 0  9994
2 59195  43.0021  18.8886 0001569 273.9917  86.0755 15.27592594 66416
STARLINK-31558          
1 59196U 24045U   25129.04333112  .00003217  00000+0  12636-3 0  9994
2 59196  43.0048  12.6812 0001115 285.2966  74.7763 15.27579498 66549
STARLINK-31275          
1 59197U 24045V   25129.08702328 -.00000322  00000+0 -21620-5 0  9999
2 59197  43.0044  13.0094 0003078 249.1581 110.8941 15.27580450 66578
STARLINK-31590          
1 59198U 24045W   25128.37549497 -.00003979  00000+0 -13512-3 0  9997
2 59198  43.0000  17.1257 0000355 330.8168  29.2664 15.27586255 66463
STARLINK-31567          
1 59199U 24045X   25129.05748612 -.00001474  00000+0 -44083-4 0  9990
2 59199  43.0033  12.7881 0000647 281.0097  79.0682 15.27568847 66578
