OBJECT_NAME,OBJECT_ID,EPOCH,MEAN_MOTION,ECCENTRICITY,INCLINATION,RA_OF_ASC_NODE,ARG_OF_PERICENTER,MEAN_ANOMALY,EPHEMERIS_TYPE,CLASSIFICATION_TYPE,NORAD_CAT_ID,ELEMENT_SET_NO,REV_AT_EPOCH,BSTAR,MEAN_MOTION_DOT,MEAN_MOTION_DDOT
STARLINK-31298,2024-044R,2025-05-08T10:50:37.035456,15.27572676,.0001841,43.0105,30.8175,246.9958,113.0700,0,U,59167,999,6665,.16956E-4,.204E-5,0
STARLINK-31322,2024-044S,2025-05-08T22:17:47.879232,15.25902681,.0001328,43.0009,28.3958,260.2013,99.8688,0,U,59168,999,6699,.62937E-5,-.93E-6,0
STARLINK-31329,2024-044T,2025-05-09T06:00:02.000160,15.27537401,.0002,43.0019,26.5578,279.8871,55.8855,0,U,59169,999,6682,.16007E-2,.43992E-3,0
STARLINK-31340,2024-044U,2025-05-07T22:43:05.736288,15.27596406,.0002899,43.0073,354.1523,269.3481,90.7039,0,U,59170,999,6726,.13103E-3,.3346E-4,0
STARLINK-31344,2024-044V,2025-05-08T23:55:08.562432,15.26296670,.0002873,43.0020,28.0444,14.0160,346.0770,0,U,59171,999,6699,.16595E-2,.43926E-3,0
STARLINK-31348,2024-044W,2025-05-08T07:36:09.169920,15.27571719,.0000553,43.0036,344.8268,301.5900,58.4897,0,U,59172,999,6717,.10957E-2,.30004E-3,0
STARLINK-31289,2024-044X,2025-05-08T23:29:14.637696,15.27713507,.0001947,43.0065,27.8975,256.8362,103.2273,0,U,59173,999,6700,.67787E-3,.18514E-3,0
STARLINK-31283,2024-044Y,2025-05-09T06:00:02.000160,15.27593860,.0001498,43.0011,339.4224,277.6001,237.2982,0,U,59174,999,6759,-.89004E-4,-.2712E-4,0
EXO-0,2023-174DK,2025-05-08T17:08:02.113440,15.26317484,.001159,97.4184,205.2253,158.9503,201.2215,0,U,59175,999,8318,.33123E-3,.8543E-4,0
STARLINK-31439,2024-045A,2025-05-09T00:22:37.103808,15.27580610,.0001462,43.0040,9.8762,279.0351,81.0335,0,U,59178,999,6660,.11348E-3,.2862E-4,0
STARLINK-31410,2024-045B,2025-05-09T01:44:58.380288,15.27591008,.0001919,43.0039,12.9068,249.5353,110.5293,0,U,59179,999,6657,-.10864E-3,-.3252E-4,0
STARLINK-31395,2024-045C,2025-05-09T00:51:31.842144,15.27575468,.0001147,43.0085,13.4882,282.4839,77.5884,0,U,59180,999,6656,-.23728E-4,-.915E-5,0
STARLINK-31486,2024-045D,2025-05-08T08:46:36.924960,15.27573270,.0001439,43.0029,13.6027,283.2089,76.8602,0,U,59181,999,6650,-.17804E-3,-.5157E-4,0
STARLINK-31411,2024-045E,2025-05-08T21:59:39.298848,15.27571358,.0001349,43.0052,13.4469,281.5690,78.5011,0,U,59182,999,6655,.61233E-4,.1423E-4,0
STARLINK-31382,2024-045G,2025-05-07T23:04:14.528064,15.28635852,.0003421,43.0051,19.1844,262.9739,97.0724,0,U,59184,999,6640,.73893E-3,.20797E-3,0
STARLINK-31394,2024-045H,2025-05-09T06:00:02.000160,15.30269673,.0001798,43.0006,1.3780,276.2533,49.4956,0,U,59185,999,6671,-.39368E-1,-.1077917E-1,0
STARLINK-31403,2024-045J,2025-05-09T00:49:55.013664,15.27575210,.0001487,42.9903,351.6471,48.1223,311.9755,0,U,59186,999,6671,-.81509E-6,-.284E-5,0
STARLINK-31514,2024-045K,2025-05-08T22:40:21.910656,15.27576184,.0001275,43.0031,13.6680,271.1504,88.9201,0,U,59187,999,6655,.75632E-4,.1819E-4,0
STARLINK-31478,2024-045L,2025-05-09T01:33:52.701984,15.27571451,.000152,43.0029,12.8418,278.0892,81.9788,0,U,59188,999,6657,.28138E-3,.7487E-4,0
STARLINK-31498,2024-045M,2025-05-08T01:04:22.997568,15.27576951,.0000864,43.0022,18.9463,275.6809,84.3944,0,U,59189,999,6641,.25145E-4,.43E-5,0
STARLINK-31563,2024-045N,2025-05-09T01:17:13.386624,15.27576940,.0000137,43.0018,12.7593,344.6861,15.3987,0,U,59190,999,6657,-.11372E-4,-.574E-5,0
STARLINK-31551,2024-045P,2025-05-08T08:56:46.975488,15.29850951,.0003317,43.0050,16.2507,246.5614,113.4889,0,U,59191,999,6647,.20681E-2,.61265E-3,0
STARLINK-31536,2024-045Q,2025-05-08T22:00:01.999584,15.27551051,.0001469,43.0033,13.7300,271.2017,330.1083,0,U,59192,999,6654,-.37793E-3,-.10638E-3,0
STARLINK-31548,2024-045R,2025-05-09T00:45:58.527360,15.27580319,.0000972,43.0054,13.4579,280.3882,79.6860,0,U,59193,999,6656,.22923E-4,.369E-5,0
STARLINK-31542,2024-045S,2025-05-08T09:15:17.470368,15.27575342,.0001538,43.0045,16.3459,278.3633,81.7044,0,U,59194,999,6647,-.78142E-5,-.477E-5,0
STARLINK-31554,2024-045T,2025-05-08T00:53:15.751968,15.27592594,.0001569,43.0021,18.8886,273.9917,86.0755,0,U,59195,999,6641,-.27231E-4,-.1012E-4,0
STARLINK-31558,2024-045U,2025-05-09T01:02:23.808768,15.27579498,.0001115,43.0048,12.6812,285.2966,74.7763,0,U,59196,999,6654,.12636E-3,.3217E-4,0
STARLINK-31275,2024-045V,2025-05-09T02:05:18.811392,15.27580450,.0003078,43.0044,13.0094,249.1581,110.8941,0,U,59197,999,6657,-.2162E-5,-.322E-5,0
STARLINK-31590,2024-045W,2025-05-08T09:00:42.765408,15.27586255,.0000355,43.0000,17.1257,330.8168,29.2664,0,U,59198,999,6646,-.13512E-3,-.3979E-4,0
STARLINK-31567,2024-045X,2025-05-09T01:22:46.800768,15.27568847,.0000647,43.0033,12.7881,281.0097,79.0682,0,U,59199,999,6657,-.44083E-4,-.1474E-4,0
